OBJECT_NAME,OBJECT_ID,EPOCH,MEAN_MOTION,ECCENTRICITY,INCLINATION,RA_OF_ASC_NODE,ARG_OF_PERICENTER,MEAN_ANOMALY,EPHEMERIS_TYPE,CLASSIFICATION_TYPE,NORAD_CAT_ID,ELEMENT_SET_NO,REV_AT_EPOCH,BSTAR,MEAN_MOTION_DOT,MEAN_MOTION_DDOT
2026-132G,2026-132G,2026-07-08T10:26:01.192992,15.07805957,.0024592,97.6875,253.0023,224.5551,135.3700,0,U,69676,999,397,.42983E-3,.6559E-4,0
STARLINK-38005,2026-145A,2026-07-10T09:53:29.237280,15.75208931,.00017538,97.2849,38.0120,43.5499,316.5905,0,U,69677,999,242,.69785335E-3,.105341E-2,0
STARLINK-38009,2026-145B,2026-07-10T09:50:56.619456,15.75207893,.00015149,97.2850,38.0147,65.2759,294.8664,0,U,69678,999,242,.54535061E-3,.82062E-3,0
STARLINK-37998,2026-145C,2026-07-10T00:38:30.555456,15.75212208,.0001442,97.2844,37.6191,80.3698,279.7730,0,U,69679,999,236,.68052779E-3,.102703E-2,0
STARLINK-37994,2026-145D,2026-07-10T09:49:25.082112,15.75229235,.00013811,97.2843,38.0157,81.4769,278.6653,0,U,69680,999,242,.91665119E-3,.139079E-2,0
STARLINK-37992,2026-145E,2026-07-10T08:00:03.000384,15.75249439,.00014491,97.2850,37.9394,94.4804,197.2609,0,U,69681,999,364,-.10841382E-2,-.159273E-2,0
STARLINK-37997,2026-145F,2026-07-10T08:00:03.000384,15.75259178,.00013993,97.2847,37.9414,95.3083,200.4265,0,U,69682,999,364,-.11681817E-2,-.171439E-2,0
STARLINK-37990,2026-145G,2026-07-09T12:27:10.438848,15.75198405,.00013683,97.2849,37.0844,111.6283,248.5128,0,U,69683,999,228,.11691499E-2,.178003E-2,0
STARLINK-37951,2026-145H,2026-07-10T09:46:53.496768,15.75336945,.00018533,97.2846,38.0182,6.6511,353.4778,0,U,69684,999,242,.13472955E-2,.207091E-2,0
STARLINK-37957,2026-145J,2026-07-10T09:45:21.247488,15.75231132,.00016291,97.2850,38.0195,51.3952,308.7458,0,U,69685,999,242,.9251383E-3,.140403E-2,0
STARLINK-37968,2026-145K,2026-07-10T09:36:42.877728,15.75225614,.00013707,97.2849,38.0286,81.5840,278.5581,0,U,69686,999,242,.93471992E-3,.141847E-2,0
STARLINK-37977,2026-145L,2026-07-09T21:23:51.759456,15.75253257,.00009398,97.2853,37.4964,66.5603,293.5761,0,U,69687,999,234,.16773458E-2,.258488E-2,0
STARLINK-37908,2026-145M,2026-07-10T09:32:38.933376,15.75232189,.0001378,97.2856,38.0341,40.3574,319.7794,0,U,69688,999,242,.90606E-3,.137462E-2,0
STARLINK-37979,2026-145N,2026-07-10T11:03:37.162656,15.75192418,.00014653,97.2843,38.0997,74.5108,285.6319,0,U,69689,999,243,.10100921E-2,.153282E-2,0
STARLINK-37940,2026-145P,2026-07-10T09:30:36.824256,15.75213082,.0001357,97.2852,38.0349,94.8207,265.3213,0,U,69690,999,242,.68591602E-3,.103531E-2,0
STARLINK-37961,2026-145Q,2026-07-10T09:26:02.645952,15.75225201,.00015051,97.2856,38.0386,71.7040,288.4389,0,U,69691,999,242,.91113156E-3,.138203E-2,0
STARLINK-37787,2026-145R,2026-07-10T17:00:23.634432,15.75220911,.0000934,97.2835,38.3747,89.7302,270.4070,0,U,69692,999,247,.1242E-2,.18954E-2,0
STARLINK-37962,2026-145S,2026-07-10T12:23:24.673056,15.75284185,.0001519,97.2847,38.1773,114.4474,245.6950,0,U,69693,999,244,.14084E-2,.216222E-2,0
STARLINK-37953,2026-145T,2026-07-10T09:24:31.087872,15.75227047,.00014998,97.2854,38.0400,67.4173,292.7251,0,U,69694,999,242,.8865752E-3,.134426E-2,0
STARLINK-37926,2026-145U,2026-07-10T08:00:03.000384,15.75235867,.0001517,97.2855,37.9823,98.6218,293.1084,0,U,69695,999,364,-.87824618E-3,-.129423E-2,0
STARLINK-37959,2026-145V,2026-07-10T00:13:06.135456,15.75229874,.00016176,97.2858,37.6433,72.8018,287.3425,0,U,69696,999,236,.10980334E-2,.167184E-2,0
STARLINK-37976,2026-145W,2026-07-10T12:20:52.120032,15.75247843,.0001826,97.2846,38.1801,105.0422,255.1046,0,U,69697,999,244,.99656E-3,.151562E-2,0
STARLINK-37912,2026-145X,2026-07-10T12:19:20.777952,15.75274921,.0001399,97.2857,38.1821,100.6345,259.5077,0,U,69698,999,244,.11151E-2,.170178E-2,0
STARLINK-37974,2026-145Y,2026-07-10T12:18:20.645280,15.75262677,.0001076,97.2847,38.1836,83.5545,276.5843,0,U,69699,999,244,.1014E-2,.154363E-2,0
STARLINK-37955,2026-145Z,2026-07-10T18:20:41.354592,15.75208464,.0000873,97.2856,38.4529,69.5169,290.6190,0,U,69700,999,248,.5507E-3,.82876E-3,0
STRIX-8,2026-146A,2026-07-10T18:29:51.415008,15.04410837,.0007855,41.9901,37.6025,352.8931,7.1783,0,U,69701,999,211,.21127E-3,.2812E-4,0
ELECTRON R/B,2026-146B,2026-07-10T17:23:08.134944,15.71553502,.0181348,42.0745,30.1306,348.7903,10.8938,0,U,69702,999,220,.10696E-2,.400735E-2,.55909E-4
ELECTRON KICK STAGE R/B,2026-146C,2026-07-10T18:22:54.717312,15.04921200,.0009637,41.9885,37.5627,354.1283,5.9430,0,U,69703,999,211,.1828E-3,.2443E-4,0
STARLINK-38055,2026-147A,2026-07-10T19:14:04.767648,15.80846871,.0001364,97.2840,227.9336,66.3753,293.7658,0,U,69704,999,316,.11495E-2,.226166E-2,0
STARLINK-37898,2026-147B,2026-07-10T19:12:53.447904,15.80816393,.0001145,97.2858,227.9319,108.2017,251.9376,0,U,69705,999,316,.10411E-2,.204011E-2,0
