2026-132G               
1 69676U 26132G   26189.43473603  .00006559  00000+0  42983-3 0  9997
2 69676  97.6875 253.0023 0024592 224.5551 135.3700 15.07805957  3974
STARLINK-38005          
1 69677U 26145A   26191.41214395  .00105341  00000+0  69785-3 0  9992
2 69677  97.2849  38.0120 0001753  43.5499 316.5905 15.75208931  2428
STARLINK-38009          
1 69678U 26145B   26191.41037754  .00082062  00000+0  54535-3 0  9996
2 69678  97.2850  38.0147 0001514  65.2759 294.8664 15.75207893  2421
STARLINK-37998          
1 69679U 26145C   26191.02674254  .00102703  00000+0  68053-3 0  9991
2 69679  97.2844  37.6191 0001442  80.3698 279.7730 15.75212208  2364
STARLINK-37994          
1 69680U 26145D   26191.40931808  .00139079  00000+0  91665-3 0  9997
2 69680  97.2843  38.0157 0001381  81.4769 278.6653 15.75229235  2422
STARLINK-37992          
1 69681U 26145E   26191.33336806 -.00159273  00000+0 -10841-2 0  9993
2 69681  97.2850  37.9394 0001449  94.4804 197.2609 15.75249439  3641
STARLINK-37997          
1 69682U 26145F   26191.33336806 -.00171439  00000+0 -11682-2 0  9996
2 69682  97.2847  37.9414 0001399  95.3083 200.4265 15.75259178  3640
STARLINK-37990          
1 69683U 26145G   26190.51887082  .00178003  00000+0  11691-2 0  9995
2 69683  97.2849  37.0844 0001368 111.6283 248.5128 15.75198405  2286
STARLINK-37951          
1 69684U 26145H   26191.40756362  .00207091  00000+0  13473-2 0  9991
2 69684  97.2846  38.0182 0001853   6.6511 353.4778 15.75336945  2422
STARLINK-37957          
1 69685U 26145J   26191.40649592  .00140403  00000+0  92514-3 0  9995
2 69685  97.2850  38.0195 0001629  51.3952 308.7458 15.75231132  2429
STARLINK-37968          
1 69686U 26145K   26191.40049627  .00141847  00000+0  93472-3 0  9996
2 69686  97.2849  38.0286 0001370  81.5840 278.5581 15.75225614  2422
STARLINK-37977          
1 69687U 26145L   26190.89157129  .00258488  00000+0  16773-2 0  9994
2 69687  97.2853  37.4964 0000939  66.5603 293.5761 15.75253257  2346
STARLINK-37908          
1 69688U 26145M   26191.39767284  .00137462  00000+0  90606-3 0  9996
2 69688  97.2856  38.0341 0001378  40.3574 319.7794 15.75232189  2428
STARLINK-37979          
1 69689U 26145N   26191.46084679  .00153282  00000+0  10101-2 0  9994
2 69689  97.2843  38.0997 0001465  74.5108 285.6319 15.75192418  2436
STARLINK-37940          
1 69690U 26145P   26191.39625954  .00103531  00000+0  68592-3 0  9995
2 69690  97.2852  38.0349 0001357  94.8207 265.3213 15.75213082  2422
STARLINK-37961          
1 69691U 26145Q   26191.39308618  .00138203  00000+0  91113-3 0  9990
2 69691  97.2856  38.0386 0001505  71.7040 288.4389 15.75225201  2428
STARLINK-37787          
1 69692U 26145R   26191.70860688  .00189540  00000+0  12420-2 0  9999
2 69692  97.2835  38.3747 0000934  89.7302 270.4070 15.75220911  2471
STARLINK-37962          
1 69693U 26145S   26191.51625779  .00216222  00000+0  14084-2 0  9995
2 69693  97.2847  38.1773 0001519 114.4474 245.6950 15.75284185  2449
STARLINK-37953          
1 69694U 26145T   26191.39202648  .00134426  00000+0  88658-3 0  9992
2 69694  97.2854  38.0400 0001499  67.4173 292.7251 15.75227047  2423
STARLINK-37926          
1 69695U 26145U   26191.33336806 -.00129423  00000+0 -87825-3 0  9999
2 69695  97.2855  37.9823 0001517  98.6218 293.1084 15.75235867  3642
STARLINK-37959          
1 69696U 26145V   26191.00909879  .00167184  00000+0  10980-2 0  9991
2 69696  97.2858  37.6433 0001617  72.8018 287.3425 15.75229874  2366
STARLINK-37976          
1 69697U 26145W   26191.51449213  .00151562  00000+0  99656-3 0  9990
2 69697  97.2846  38.1801 0001826 105.0422 255.1046 15.75247843  2446
STARLINK-37912          
1 69698U 26145X   26191.51343493  .00170178  00000+0  11151-2 0  9991
2 69698  97.2857  38.1821 0001399 100.6345 259.5077 15.75274921  2440
STARLINK-37974          
1 69699U 26145Y   26191.51273895  .00154363  00000+0  10140-2 0  9995
2 69699  97.2847  38.1836 0001076  83.5545 276.5843 15.75262677  2444
STARLINK-37955          
1 69700U 26145Z   26191.76436753  .00082876  00000+0  55070-3 0  9990
2 69700  97.2856  38.4529 0000873  69.5169 290.6190 15.75208464  2489
STRIX-8                 
1 69701U 26146A   26191.77073397  .00002812  00000+0  21127-3 0  9992
2 69701  41.9901  37.6025 0007855 352.8931   7.1783 15.04410837  2111
ELECTRON R/B            
1 69702U 26146B   26191.72439971  .00400735  55909-4  10696-2 0  9999
2 69702  42.0745  30.1306 0181348 348.7903  10.8938 15.71553502  2207
ELECTRON KICK STAGE R/B 
1 69703U 26146C   26191.76591108  .00002443  00000+0  18280-3 0  9994
2 69703  41.9885  37.5627 0009637 354.1283   5.9430 15.04921200  2112
STARLINK-38055          
1 69704U 26147A   26191.80144407  .00226166  00000+0  11495-2 0  9997
2 69704  97.2840 227.9336 0001364  66.3753 293.7658 15.80846871  3162
STARLINK-37898          
1 69705U 26147B   26191.80061861  .00204011  00000+0  10411-2 0  9992
2 69705  97.2858 227.9319 0001145 108.2017 251.9376 15.80816393  3168
